start=new Date('2023-06-14T00:00:00.000Z').valueOf();
sats=[{"SEMIMAJOR_AXIS":"6917.898","MEAN_MOTION":"15.08834232","OBJECT_ID":"2022-104F","EPHEMERIS_TYPE":"0","FILE":"3932371","PERIOD":"95.438","REF_FRAME":"TEME","OBJECT_NAME":"STARLINK-4671","TLE_LINE1":"1 53593U 22104F   23164.79644234 -.00000423  00000-0 -84786-5 0  9998","MEAN_ANOMALY":"269.9518","COUNTRY_CODE":"US","NORAD_CAT_ID":"53593","BSTAR":"-0.00000847860000","EPOCH":"2023-06-13T19:06:52.618176","LAUNCH_DATE":"2022-08-28","MEAN_MOTION_DDOT":"0.0000000000000","APOAPSIS":"540.591","TIME_SYSTEM":"UTC","RA_OF_ASC_NODE":"52.9045","CENTER_NAME":"EARTH","PERIAPSIS":"538.935","CLASSIFICATION_TYPE":"U","ARG_OF_PERICENTER":"90.1611","ELEMENT_SET_NO":"999","DECAY_DATE":null,"SITE":"AFETR","TLE_LINE2":"2 53593  53.2175  52.9045 0001197  90.1611 269.9518 15.08834232 44993","ECCENTRICITY":"0.00011970","OBJECT_TYPE":"PAYLOAD","REV_AT_EPOCH":"4499","RCS_SIZE":"LARGE","INCLINATION":"53.2175","MEAN_ELEMENT_THEORY":"SGP4","MEAN_MOTION_DOT":"-0.00000423","GP_ID":"233873654"},{"ECCENTRICITY":"0.00012480","SITE":"AFETR","TLE_LINE2":"2 53594  53.2179  52.8356 0001248  88.8872 271.2263 15.08834806 45139","DECAY_DATE":null,"ELEMENT_SET_NO":"999","CLASSIFICATION_TYPE":"U","PERIAPSIS":"538.898","ARG_OF_PERICENTER":"88.8872","MEAN_MOTION_DOT":"-0.00000329","GP_ID":"233873906","MEAN_ELEMENT_THEORY":"SGP4","INCLINATION":"53.2179","REV_AT_EPOCH":"4513","RCS_SIZE":"LARGE","OBJECT_TYPE":"PAYLOAD","RA_OF_ASC_NODE":"52.8356","CENTER_NAME":"EARTH","EPOCH":"2023-06-13T18:50:57.403104","BSTAR":"-0.00000259000000","COUNTRY_CODE":"US","NORAD_CAT_ID":"53594","TLE_LINE1":"1 53594U 22104G   23164.78538661 -.00000329  00000-0 -25900-5 0  9992","MEAN_ANOMALY":"271.2263","OBJECT_NAME":"STARLINK-4681","APOAPSIS":"540.625","TIME_SYSTEM":"UTC","MEAN_MOTION_DDOT":"0.0000000000000","LAUNCH_DATE":"2022-08-28","SEMIMAJOR_AXIS":"6917.896","OBJECT_ID":"2022-104G","MEAN_MOTION":"15.08834806","PERIOD":"95.438","REF_FRAME":"TEME","FILE":"3932371","EPHEMERIS_TYPE":"0"},{"CENTER_NAME":"EARTH","RA_OF_ASC_NODE":"56.4294","RCS_SIZE":"LARGE","REV_AT_EPOCH":"4487","OBJECT_TYPE":"PAYLOAD","MEAN_MOTION_DOT":"0.00000477","GP_ID":"233841946","INCLINATION":"53.2178","MEAN_ELEMENT_THEORY":"SGP4","ELEMENT_SET_NO":"999","DECAY_DATE":null,"PERIAPSIS":"538.914","CLASSIFICATION_TYPE":"U","ARG_OF_PERICENTER":"85.1208","ECCENTRICITY":"0.00012270","TLE_LINE2":"2 53595  53.2178  56.4294 0001227  85.1208 274.9925 15.08834447 44876","SITE":"AFETR","EPHEMERIS_TYPE":"0","PERIOD":"95.438","REF_FRAME":"TEME","FILE":"3932134","MEAN_MOTION":"15.08834447","OBJECT_ID":"2022-104H","SEMIMAJOR_AXIS":"6917.897","MEAN_MOTION_DDOT":"0.0000000000000","LAUNCH_DATE":"2022-08-28","TIME_SYSTEM":"UTC","APOAPSIS":"540.611","OBJECT_NAME":"STARLINK-4684","TLE_LINE1":"1 53595U 22104H   23163.99418785  .00000477  00000-0  48080-4 0  9994","MEAN_ANOMALY":"274.9925","BSTAR":"0.00004808000000","EPOCH":"2023-06-12T23:51:37.830240","COUNTRY_CODE":"US","NORAD_CAT_ID":"53595"},{"TLE_LINE2":"2 53596  53.2179  52.4944 0001084  94.6648 265.4468 15.08839194 44679","SITE":"AFETR","ECCENTRICITY":"0.00010840","ARG_OF_PERICENTER":"94.6648","PERIAPSIS":"538.998","CLASSIFICATION_TYPE":"U","ELEMENT_SET_NO":"999","DECAY_DATE":null,"MEAN_ELEMENT_THEORY":"SGP4","INCLINATION":"53.2179","GP_ID":"233872905","MEAN_MOTION_DOT":"-0.00000818","OBJECT_TYPE":"PAYLOAD","REV_AT_EPOCH":"4467","RCS_SIZE":"LARGE","RA_OF_ASC_NODE":"52.4944","CENTER_NAME":"EARTH","COUNTRY_CODE":"US","NORAD_CAT_ID":"53596","BSTAR":"-0.00003331300000","EPOCH":"2023-06-13T20:15:43.463520","TLE_LINE1":"1 53596U 22104J   23164.84425305 -.00000818  00000-0 -33313-4 0  9990","OBJECT_NAME":"STARLINK-4668","MEAN_ANOMALY":"265.4468","TIME_SYSTEM":"UTC","APOAPSIS":"540.498","LAUNCH_DATE":"2022-08-28","MEAN_MOTION_DDOT":"0.0000000000000","MEAN_MOTION":"15.08839194","OBJECT_ID":"2022-104J","SEMIMAJOR_AXIS":"6917.883","FILE":"3932371","PERIOD":"95.438","REF_FRAME":"TEME","EPHEMERIS_TYPE":"0"},{"ELEMENT_SET_NO":"999","DECAY_DATE":null,"ARG_OF_PERICENTER":"88.9591","PERIAPSIS":"538.962","CLASSIFICATION_TYPE":"U","ECCENTRICITY":"0.00011390","TLE_LINE2":"2 53597  53.2169  55.7874 0001139  88.9591 271.1531 15.08838542 44560","SITE":"AFETR","RCS_SIZE":"LARGE","REV_AT_EPOCH":"4456","OBJECT_TYPE":"PAYLOAD","GP_ID":"233840445","MEAN_MOTION_DOT":"0.00000532","MEAN_ELEMENT_THEORY":"SGP4","INCLINATION":"53.2169","RA_OF_ASC_NODE":"55.7874","CENTER_NAME":"EARTH","TLE_LINE1":"1 53597U 22104K   23164.11929528  .00000532  00000-0  51512-4 0  9999","MEAN_ANOMALY":"271.1531","OBJECT_NAME":"STARLINK-4682","EPOCH":"2023-06-13T02:51:47.112192","BSTAR":"0.00005151200000","COUNTRY_CODE":"US","NORAD_CAT_ID":"53597","MEAN_MOTION_DDOT":"0.0000000000000","LAUNCH_DATE":"2022-08-28","TIME_SYSTEM":"UTC","APOAPSIS":"540.538","MEAN_MOTION":"15.08838542","OBJECT_ID":"2022-104K","SEMIMAJOR_AXIS":"6917.885","EPHEMERIS_TYPE":"0","PERIOD":"95.438","REF_FRAME":"TEME","FILE":"3932134"},{"TIME_SYSTEM":"UTC","APOAPSIS":"540.537","LAUNCH_DATE":"2022-08-28","MEAN_MOTION_DDOT":"0.0000000000000","COUNTRY_CODE":"US","NORAD_CAT_ID":"53598","BSTAR":"0.00007245100000","EPOCH":"2023-06-12T23:25:05.891232","MEAN_ANOMALY":"275.3176","TLE_LINE1":"1 53598U 22104L   23163.97576263  .00000865  00000-0  72451-4 0  9991","OBJECT_NAME":"STARLINK-4676","FILE":"3932134","REF_FRAME":"TEME","PERIOD":"95.438","EPHEMERIS_TYPE":"0","MEAN_MOTION":"15.08837274","OBJECT_ID":"2022-104L","SEMIMAJOR_AXIS":"6917.889","MEAN_ELEMENT_THEORY":"SGP4","INCLINATION":"53.2180","GP_ID":"233840695","MEAN_MOTION_DOT":"0.00000865","OBJECT_TYPE":"PAYLOAD","REV_AT_EPOCH":"4454","RCS_SIZE":"LARGE","TLE_LINE2":"2 53598  53.2180  56.3149 0001132  84.7946 275.3176 15.08837274 44547","SITE":"AFETR","ECCENTRICITY":"0.00011320","ARG_OF_PERICENTER":"84.7946","PERIAPSIS":"538.971","CLASSIFICATION_TYPE":"U","ELEMENT_SET_NO":"999","DECAY_DATE":null,"CENTER_NAME":"EARTH","RA_OF_ASC_NODE":"56.3149"},{"GP_ID":"233874654","MEAN_MOTION_DOT":"-0.00000526","INCLINATION":"53.2178","MEAN_ELEMENT_THEORY":"SGP4","RCS_SIZE":"LARGE","REV_AT_EPOCH":"4467","OBJECT_TYPE":"PAYLOAD","ECCENTRICITY":"0.00010710","SITE":"AFETR","TLE_LINE2":"2 53600  53.2178  52.4023 0001071  96.1023 264.0091 15.08834580 44673","ELEMENT_SET_NO":"999","DECAY_DATE":null,"CLASSIFICATION_TYPE":"U","PERIAPSIS":"539.021","ARG_OF_PERICENTER":"96.1023","CENTER_NAME":"EARTH","RA_OF_ASC_NODE":"52.4023","APOAPSIS":"540.503","TIME_SYSTEM":"UTC","MEAN_MOTION_DDOT":"0.0000000000000","LAUNCH_DATE":"2022-08-28","BSTAR":"-0.00001497700000","EPOCH":"2023-06-13T19:54:30.305088","COUNTRY_CODE":"US","NORAD_CAT_ID":"53600","OBJECT_NAME":"STARLINK-4677","TLE_LINE1":"1 53600U 22104N   23164.82951742 -.00000526  00000-0 -14977-4 0  9994","MEAN_ANOMALY":"264.0091","PERIOD":"95.438","REF_FRAME":"TEME","FILE":"3932371","EPHEMERIS_TYPE":"0","SEMIMAJOR_AXIS":"6917.897","OBJECT_ID":"2022-104N","MEAN_MOTION":"15.08834580"},{"GP_ID":"233873406","MEAN_MOTION_DOT":"-0.00000955","INCLINATION":"53.2174","MEAN_ELEMENT_THEORY":"SGP4","RCS_SIZE":"LARGE","REV_AT_EPOCH":"4467","OBJECT_TYPE":"PAYLOAD","ECCENTRICITY":"0.00010840","SITE":"AFETR","TLE_LINE2":"2 53601  53.2174  52.4722 0001084  91.3374 268.7742 15.08839149 44676","ELEMENT_SET_NO":"999","DECAY_DATE":null,"PERIAPSIS":"538.998","CLASSIFICATION_TYPE":"U","ARG_OF_PERICENTER":"91.3374","CENTER_NAME":"EARTH","RA_OF_ASC_NODE":"52.4722","APOAPSIS":"540.498","TIME_SYSTEM":"UTC","MEAN_MOTION_DDOT":"0.0000000000000","LAUNCH_DATE":"2022-08-28","EPOCH":"2023-06-13T20:10:25.213440","BSTAR":"-0.00004195900000","COUNTRY_CODE":"US","NORAD_CAT_ID":"53601","MEAN_ANOMALY":"268.7742","TLE_LINE1":"1 53601U 22104P   23164.84056960 -.00000955  00000-0 -41959-4 0  9991","OBJECT_NAME":"STARLINK-4675","PERIOD":"95.438","REF_FRAME":"TEME","FILE":"3932371","EPHEMERIS_TYPE":"0","SEMIMAJOR_AXIS":"6917.883","MEAN_MOTION":"15.08839149","OBJECT_ID":"2022-104P"},{"SEMIMAJOR_AXIS":"6917.896","OBJECT_ID":"2022-104Q","MEAN_MOTION":"15.08835054","EPHEMERIS_TYPE":"0","FILE":"3932371","PERIOD":"95.438","REF_FRAME":"TEME","TLE_LINE1":"1 53602U 22104Q   23164.78032285  .00000303  00000-0  37113-4 0  9991","MEAN_ANOMALY":"259.6118","OBJECT_NAME":"STARLINK-4648","COUNTRY_CODE":"US","NORAD_CAT_ID":"53602","EPOCH":"2023-06-13T18:43:39.894240","BSTAR":"0.00003711300000","LAUNCH_DATE":"2022-08-28","MEAN_MOTION_DDOT":"0.0000000000000","APOAPSIS":"540.630","TIME_SYSTEM":"UTC","RA_OF_ASC_NODE":"47.8297","CENTER_NAME":"EARTH","ARG_OF_PERICENTER":"100.5016","PERIAPSIS":"538.891","CLASSIFICATION_TYPE":"U","DECAY_DATE":null,"ELEMENT_SET_NO":"999","SITE":"AFETR","TLE_LINE2":"2 53602  53.2178  47.8297 0001257 100.5016 259.6118 15.08835054 44738","ECCENTRICITY":"0.00012570","OBJECT_TYPE":"PAYLOAD","REV_AT_EPOCH":"4473","RCS_SIZE":"LARGE","INCLINATION":"53.2178","MEAN_ELEMENT_THEORY":"SGP4","MEAN_MOTION_DOT":"0.00000303","GP_ID":"233873655"},{"RA_OF_ASC_NODE":"47.3661","CENTER_NAME":"EARTH","ECCENTRICITY":"0.00011250","TLE_LINE2":"2 53603  53.2179  47.3661 0001125  93.4271 266.6849 15.08840127 44755","SITE":"AFETR","ELEMENT_SET_NO":"999","DECAY_DATE":null,"PERIAPSIS":"538.967","CLASSIFICATION_TYPE":"U","ARG_OF_PERICENTER":"93.4271","MEAN_MOTION_DOT":"0.00000077","GP_ID":"233873907","MEAN_ELEMENT_THEORY":"SGP4","INCLINATION":"53.2179","REV_AT_EPOCH":"4475","RCS_SIZE":"LARGE","OBJECT_TYPE":"PAYLOAD","OBJECT_ID":"2022-104R","MEAN_MOTION":"15.08840127","SEMIMAJOR_AXIS":"6917.880","REF_FRAME":"TEME","PERIOD":"95.438","FILE":"3932371","EPHEMERIS_TYPE":"0","BSTAR":"0.00002292500000","EPOCH":"2023-06-13T22:26:16.249056","COUNTRY_CODE":"US","NORAD_CAT_ID":"53603","TLE_LINE1":"1 53603U 22104R   23164.93491029  .00000077  00000-0  22925-4 0  9997","OBJECT_NAME":"STARLINK-4692","MEAN_ANOMALY":"266.6849","TIME_SYSTEM":"UTC","APOAPSIS":"540.523","MEAN_MOTION_DDOT":"0.0000000000000","LAUNCH_DATE":"2022-08-28"}];
